STARLINK-4084           
1 52657U 22053B   26026.13666165  .00000778  00000+0  66965-4 0  9994
2 52657  53.2218 345.4670 0001748  89.6234 270.4959 15.08838201204984
STARLINK-4082           
1 52658U 22053C   26026.16880255  .00001596  00000+0  11842-3 0  9998
2 52658  53.2172 345.0084 0001378  99.9875 260.1273 15.08813756204818
STARLINK-3960           
1 52659U 22053D   26026.16509355 -.00000739  00000+0 -28362-4 0  9994
2 52659  53.2192 344.9730 0001311  98.0482 262.0659 15.08841795204800
STARLINK-4081           
1 52660U 22053E   26025.16781994 -.00000724  00000+0 -27420-4 0  9994
2 52660  53.2179 349.4989 0001471  80.4672 279.6486 15.08846109204543
STARLINK-4042           
1 52661U 22053F   26026.50001156  .01161762  00000+0  50464-2 0  9990
2 52661  53.2188 334.7003 0001321 129.3210 101.4508 15.81717992  5862
STARLINK-4044           
1 52662U 22053G   26026.08414403 -.00001379  00000+0 -68540-4 0  9991
2 52662  53.2194 345.3861 0001339  89.1791 270.9355 15.08845722204614
STARLINK-4037           
1 52663U 22053H   26026.14669655  .00003932  00000+0  26496-3 0  9998
2 52663  53.2175 345.1087 0001367  80.0092 280.1055 15.08847002204621
STARLINK-4070           
1 52664U 22053J   26026.15406090  .00021740  00000+0  13787-2 0  9997
2 52664  53.2196 345.0737 0001334 113.8174 246.2958 15.08870926204622
STARLINK-4064           
1 52665U 22053K   26026.20189910 -.00000157  00000+0  81844-5 0  9995
2 52665  53.2187 344.8586 0001030  77.3795 282.7312 15.08853362204633
STARLINK-4079           
1 52666U 22053L   26026.17241157 -.00000421  00000+0 -83405-5 0  9994
2 52666  53.2204 344.6031 0001323  95.2003 264.9140 15.08841994204632
STARLINK-4076           
1 52667U 22053M   26026.19822582 -.00001413  00000+0 -70704-4 0  9993
2 52667  53.2197 344.8752 0001430  91.3612 268.7544 15.08846656204638
STARLINK-4067           
1 52668U 22053N   26026.13934046 -.00000628  00000+0 -21353-4 0  9990
2 52668  53.2199 345.1401 0001263  86.5070 273.6067 15.08855425204622
STARLINK-3972           
1 52669U 22053P   26026.18717721  .00002491  00000+0  17449-3 0  9993
2 52669  53.2182 344.9210 0001189  86.0369 274.0759 15.08850467204627
STARLINK-4075           
1 52670U 22053Q   26026.14299054  .00006415  00000+0  42012-3 0  9999
2 52670  53.2226 345.1878 0002068  94.0726 266.0502 15.08900511204627
STARLINK-4071           
1 52671U 22053R   26026.18350313 -.00000690  00000+0 -25286-4 0  9996
2 52671  53.2206 344.9406 0001407 102.9557 257.1593 15.08842320204621
STARLINK-4073           
1 52672U 22053S   26026.19454105 -.00001392  00000+0 -69343-4 0  9994
2 52672  53.2206 344.8892 0001387  87.5995 272.5156 15.08852054204622
STARLINK-3976           
1 52673U 22053T   26026.17614529 -.00000551  00000+0 -16512-4 0  9997
2 52673  53.2219 344.9747 0001884  90.5441 269.5767 15.08839107204627
STARLINK-3936           
1 52674U 22053U   26026.19086015  .00003459  00000+0  23531-3 0  9999
2 52674  53.2187 344.9063 0001289  82.4433 277.6705 15.08843749204633
STARLINK-3934           
1 52675U 22053V   26026.17337634  .00000728  00000+0  63820-4 0  9996
2 52675  53.2182 334.9874 0001431  86.2577 273.8578 15.08852962204754
STARLINK-4006           
1 52676U 22053W   26026.17981993  .00007798  00000+0  50736-3 0  9995
2 52676  53.2190 344.9544 0001451  80.0593 280.0563 15.08847520204625
STARLINK-4074           
1 52678U 22053Y   26026.11819576 -.00000369  00000+0 -51151-5 0  9991
2 52678  53.2184 335.3395 0001590  81.7341 278.3832 15.08851666204749
STARLINK-4031           
1 52679U 22053Z   26026.15497466 -.00001552  00000+0 -79406-4 0  9993
2 52679  53.2200 335.0680 0001384  91.1418 268.9733 15.08854417204713
STARLINK-3774           
1 52680U 22053AA  26026.14759080 -.00000027  00000+0  16369-4 0  9991
2 52680  53.2187 334.8700 0001542  97.6236 262.4931 15.08841776204739
STARLINK-4068           
1 52681U 22053AB  26026.08506393  .00000440  00000+0  45728-4 0  9991
2 52681  53.2184 335.3804 0001152  92.6850 267.4274 15.08834451204706
STARLINK-4017           
1 52682U 22053AC  26026.16233904  .00001110  00000+0  87801-4 0  9999
2 52682  53.2192 335.0327 0001192  77.4099 282.7027 15.08841468204738
STARLINK-4014           
1 52684U 22053AE  26026.15866083 -.00000410  00000+0 -76558-5 0  9992
2 52684  53.2195 335.0508 0001359  88.7951 271.3197 15.08842980204711
STARLINK-4029           
1 52685U 22053AF  26025.87162237  .00004227  00000+0  28346-3 0  9999
2 52685  53.2181 336.3387 0001379  75.5216 284.5929 15.08847357204651
STARLINK-4005           
1 52686U 22053AG  26026.17436786  .00007764  00000+0  50521-3 0  9996
2 52686  53.2182 335.2606 0001270  94.2360 265.8778 15.08850421204709
STARLINK-3981           
1 52687U 22053AH  26026.13289940  .00007189  00000+0  46920-3 0  9990
2 52687  53.2184 335.1658 0001261  89.8098 270.3038 15.08847197204690
STARLINK-4032           
1 52688U 22053AJ  26026.32792451  .00001007  00000+0  81319-4 0  9993
2 52688  53.2177 334.1756 0001354  91.5206 268.5941 15.08844471204723
STARLINK-4078           
1 52689U 22053AK  26026.41483362  .00080450  00000+0  15294-2 0  9998
2 52689  53.2146 285.8437 0003459 123.2839 236.8502 15.47573706205456
STARLINK-4035           
1 52690U 22053AL  26026.14025969 -.00000264  00000+0  14747-5 0  9996
2 52690  53.2180 335.1325 0001400 128.2405 231.8714 15.08838147204694
STARLINK-3993           
1 52692U 22053AN  26026.16966730  .00000109  00000+0  24961-4 0  9995
2 52692  53.2190 334.7315 0001335  93.9052 266.2093 15.08845734204731
STARLINK-3946           
1 52693U 22053AP  26026.17705890  .00004389  00000+0  29384-3 0  9992
2 52693  53.2190 334.9687 0001360  92.4608 267.6540 15.08820694204735
STARLINK-4072           
1 52694U 22053AQ  26026.12553896 -.00001719  00000+0 -89893-4 0  9993
2 52694  53.2209 335.2013 0001388  86.2417 273.8734 15.08853530204721
STARLINK-4041           
1 52695U 22053AR  26026.16370068  .00004552  00000+0  30408-3 0  9999
2 52695  53.2185 339.8262 0001493 111.3143 248.8009 15.08815876204676
STARLINK-4018           
1 52697U 22053AT  26026.19043697  .00000967  00000+0  78835-4 0  9992
2 52697  53.2206 339.9057 0001347  80.1950 279.9194 15.08852557204679
STARLINK-4030           
1 52698U 22053AU  26026.13427899 -.00001255  00000+0 -60772-4 0  9991
2 52698  53.2193 340.1527 0001654  82.7242 277.3938 15.08849630204658
STARLINK-3987           
1 52699U 22053AV  26026.11311673  .00001538  00000+0  11471-3 0  9995
2 52699  53.2196 330.2853 0001285  86.4022 273.7117 15.08840881204817
STARLINK-4034           
1 52700U 22053AW  26026.15999656  .00003261  00000+0  22281-3 0  9991
2 52700  53.2184 339.6872 0001265  89.9507 270.1630 15.08846459204677
STARLINK-4033           
1 52702U 22053AY  26026.18948804 -.00002133  00000+0 -11596-3 0  9991
2 52702  53.2196 339.9432 0001466  91.8587 268.2573 15.08843279204671
STARLINK-4020           
1 52703U 22053AZ  26026.14854610 -.00000095  00000+0  12140-4 0  9990
2 52703  53.2203 325.1117 0001482  73.9401 286.1754 15.08841597203616
STARLINK-3999           
1 52704U 22053BA  26026.09702161 -.00001211  00000+0 -57982-4 0  9993
2 52704  53.2199 325.3300 0001500  71.9457 288.1698 15.08848324204881
STARLINK-3844           
1 52705U 22053BB  26026.08597817  .00000370  00000+0  41306-4 0  9999
2 52705  53.2184 325.3779 0001337  88.9488 271.1657 15.08840185204880
STARLINK-3970           
1 52706U 22053BC  26025.82469965 -.00000101  00000+0  11743-4 0  9998
2 52706  53.2181 326.5524 0001253 100.8679 259.2454 15.08847494204840
STARLINK-4007           
1 52707U 22053BD  26026.13380260 -.00001570  00000+0 -80536-4 0  9992
2 52707  53.2173 325.0450 0001121  86.6407 273.4714 15.08846642204951
STARLINK-3962           
1 52708U 22053BE  26026.04551318  .00009244  00000+0  59790-3 0  9998
2 52708  53.2199 325.5488 0001118 127.6182 232.4912 15.08853174205086
STARLINK-4091           
1 52830U 22062A   26026.25712718  .00001274  00000+0  98161-4 0  9991
2 52830  53.2162 224.8022 0001415  90.6477 269.4677 15.08836545199378
STARLINK-4089           
1 52831U 22062B   26026.24973659  .00002090  00000+0  14930-3 0  9992
2 52831  53.2089 224.6404 0000681  66.5159 293.5905 15.08854101199372
STARLINK-4083           
1 52832U 22062C   26025.84861562 -.00004640  00000+0 -27362-3 0  9995
2 52832  53.2110 226.4417 0001364  95.5623 264.5525 15.08841297199311
STARLINK-4086           
1 52833U 22062D   26025.57997818 -.00000139  00000+0  93960-5 0  9997
2 52833  53.2134 227.6487 0001794 102.1818 257.9375 15.08843244199274
STARLINK-4108           
1 52834U 22062E   26025.57262752  .00004397  00000+0  29409-3 0  9994
2 52834  53.2133 227.6810 0001456  98.1629 261.9528 15.08852676199277
STARLINK-4080           
1 52835U 22062F   26025.96638325  .00003733  00000+0  25243-3 0  9996
2 52835  53.2143 225.9131 0001616  78.4944 281.6230 15.08855315199334
STARLINK-4043           
1 52836U 22062G   26026.52305956  .00001414  00000+0  10691-3 0  9996
2 52836  53.2175 223.7333 0001401  93.7551 266.3601 15.08837797199411
STARLINK-4036           
1 52837U 22062H   26025.82285823  .00001652  00000+0  12183-3 0  9991
2 52837  53.2109 226.5551 0001470  89.5666 270.5495 15.08845119199312
STARLINK-4092           
1 52838U 22062J   26025.56158644  .00005527  00000+0  36492-3 0  9997
2 52838  53.2148 227.7219 0001118  81.2530 278.8589 15.08854718199273
STARLINK-4048           
1 52839U 22062K   26025.94798320 -.00000796  00000+0 -31897-4 0  9991
2 52839  53.2153 225.9946 0001495  89.7285 270.3879 15.08844285199339
STARLINK-4049           
1 52840U 22062L   26025.96271032  .00002014  00000+0  14460-3 0  9990
2 52840  53.2153 226.0443 0001438  94.8651 265.2506 15.08841870199333
STARLINK-4065           
1 52841U 22062M   26026.53311277  .00001592  00000+0  11807-3 0  9993
2 52841  53.2170 223.3698 0001030  82.9392 277.1717 15.08841545199428
